# Made by eph2tle, compiled Jul 23 2022 16:05:18
# Run at Thu Jul 28 18:25:58 2022
#
#    The following TLEs (Two-Line Elements) were generated by fitting
# a numerically-integrated ephemeris,  based on the orbit given below,
# to the SDP4/SGP4 models.  Each TLE is good for the interval between
# its epoch and the epoch of the subsequent TLE (usually one day).
# The maximum deviation between the numerically integrated ephemerides
# and the TLE-based ephemeris, in kilometers,  is given for each TLE
# as the "worst residual".
#
#    This fitting is done using the 'eph2tle' code packaged with Find_Orb.
# The code has details on how the TLEs were computed :
#
#    https://github.com/Bill-Gray/find_orb/eph2tle.cpp
#
#    Be warned:  the error given is that between the numerically
# integrated ephems and the TLE model.  There will usually be at
# least some additional difference between the ephems and the actual
# motion of the satellite,  especially if the ephemerides are based
# on a short arc.  If the following orbital elements say something
# like "[based on] 10 observations 2015 Jan. 1-13",  and the TLEs
# are for 2015 May,  the extrapolation may be tenuous at best.  If
# your application requires a specific level of accuracy,  you may
# want to contact me;  I can give you some idea as to the fit of the
# underlying data (and possibly TLEs based on newer data).
#
#   You can usually find the underlying observational data,  and the
# fitted orbit,  residuals,  ephemerides,  and sometimes some comments
# about the object,  among the pages listed at
#
#    https://www.projectpluto.com/pluto/mpecs/pseudo.htm
#
#    WARNING:  for this object,  "normal" TLEs cannot be fitted.  (This
# usually means an object with an hyperbolic or nearly-parabolic orbit.)
# For this and similar cases,   an alternative model is used,  in which
# most of the traditional TLE data is replaced by six signed 8-digit hex
# numbers.  These six numbers are a state vector,  numerically integrated
# using a simplified force model.  This is necessary for objects at L2 or
# L1,  and sometimes for objects in high orbits where the SDP4/SGP4 model
# fails.  Some documentation is in 'get_el.cpp' in the source code at
# https://www.github.com/Bill-Gray/sat_code ; look for 'hex' in that file,
# with the actual integration done in 'sdp4.cpp'.  But be aware:  it's my
# own extension,  doesn't work with other code,  and is therefore used
# only when necessary.
#
#    Also,  if you use a TLE outside the "correct" time range (between
# its MJD and that of the next TLE),  all bets are off.  I've carefully
# computed and minimized the worst error over the "correct" time frame,
# but the ephemeris may (or may not) diverge wildly outside of it.
#
# Ephem range: 59580.000000 59945.000000 1.000000
# Created Thu Jul 28 18:25:51 2022
# Ephemeris start:  1 Jan 2022  0:00:00
# Ephemeris end:    1 Jan 2023  0:00:00
# Times are all TDT
# Positions/velocities are in equatorial J2000
# Orbital elements:  XL8D89E
#    Perigee 2021 May 14.17361 +/- 0.000489 TT =  4:09:59 (JD 2459348.67361)
# A1: 6.21e-9 +/- 8.83e-12   A2: -1.16e-9 +/- 1.62e-10
# A3: 2.8e-10 +/- 2.05e-11 AU/day^2 [1/r^2]
# Epoch 2021 May  6.0 TT = JDT 2459340.5                           Find_Orb
# M 327.87052604 +/- 0.0018           (J2000 equator)
# n   3.93088002 +/- 4.25e-5          Peri.  232.18792 +/- 0.0017
# a858243.086 +/- 6.18                Node    17.27062 +/- 0.0008
# e   0.2521635 +/- 1.88e-5           Incl.   79.58144 +/- 0.00054
# P  91.58d                  H 30.4   G  0.15   U  6.0
# q 641825.488 +/- 20.7    Q 0.00718366 +/- 5.74e-8
# 53 of 155 observations 2019 May 6-2022 July 26; mean residual 28".596
#
# 1 NoradU COSPAR   Epoch.epoch     dn/dt/2  d2n/dt2/6 BSTAR    T El# C
# 2 NoradU Inclina RAAscNode Eccent  ArgPeri MeanAno  MeanMotion Rev# C

# Worst residual: 0.24 km
# MJD 59580.000000 (2022 Jan  1  0:00)
XL8D89E
1 89996U 00000AAD 21365.99919926 -002NS87J +001WA5W3 +006CVFHOH 16700
2 89996                          -0006AV5B +00010WY3 -0002H10T     03

# Worst residual: 0.44 km
# MJD 59581.000000 (2022 Jan  2  0:00)
XL8D89E
1 89996U 00000AAD 22001.99919926 -00445P02 +0023Z8XK +005NIOLOH 16709
2 89996                          -0005SHT7 +0000R5PA -0003D9CJ     04

# Worst residual: 0.31 km
# MJD 59582.000000 (2022 Jan  3  0:00)
XL8D89E
1 89996U 00000AAD 22002.99919926 -005FFXAZ +0029BHNH +004R7FMHH 16704
2 89996                          -00054VYN +0000HEO7 -00042T8L     05

# Worst residual: 0.21 km
# MJD 59583.000000 (2022 Jan  4  0:00)
XL8D89E
1 89996U 00000AAD 22003.99919926 -006KP2AV +002CDZQA +003PMNQ8H 16709
2 89996                          -0004ENQC +00008BO6 -0004L5A0     02

# Worst residual: 0.30 km
# MJD 59584.000000 (2022 Jan  5  0:00)
XL8D89E
1 89996U 00000AAD 22004.99919926 -007JKFST +002DECGF +002KGYUAH 16700
2 89996                          -0003O0H7 +00000A69 -0004WT2O     06

# Worst residual: 0.28 km
# MJD 59585.000000 (2022 Jan  6  0:00)
XL8D89E
1 89996U 00000AAD 22005.99919926 -008C5G17 +002CM845 +001D7G8NH 16706
2 89996                          -0002YG5E -00006LHD -00052WKT     06

# Worst residual: 0.42 km
# MJD 59586.000000 (2022 Jan  7  0:00)
XL8D89E
1 89996U 00000AAD 22006.99919926 -008YTFB2 +002ABKDF +00050SYHH 16708
2 89996                          -0002ASIP -0000CCWH -00054OEQ     07

# Worst residual: 0.39 km
# MJD 59587.000000 (2022 Jan  8  0:00)
XL8D89E
1 89996U 00000AAD 22007.99919926 -009G2L7I +0026RIIY -00136L6BH 16705
2 89996                          -0001PDKZ -0000H4MB -000538X9     06

# Worst residual: 0.30 km
# MJD 59588.000000 (2022 Jan  9  0:00)
XL8D89E
1 89996U 00000AAD 22008.99919926 -009SGKYB +00225ZPO -002AR53YH 16702
2 89996                          -000168B1 -0000L22L -0004ZIV9     09

# Worst residual: 0.32 km
# MJD 59589.000000 (2022 Jan 10  0:00)
XL8D89E
1 89996U 00000AAD 22009.99919926 -00A0IHKG +001WPMEB -003H86ISH 16703
2 89996                          -0000P7QS -0000OAI7 -0004U772     00

# Worst residual: 0.24 km
# MJD 59590.000000 (2022 Jan 11  0:00)
XL8D89E
1 89996U 00000AAD 22010.99919926 -00A4PU82 +001QJUDD -004MA6XAH 16702
2 89996                          -0000A4BT -0000QYIA -0004NS7G     01

# Worst residual: 0.16 km
# MJD 59591.000000 (2022 Jan 12  0:00)
XL8D89E
1 89996U 00000AAD 22011.99919926 -00A5I8LH +001JT37R -005PPEGGH 16707
2 89996                          +00003A8G -0000T5VA -0004GN03     08

# Worst residual: 0.16 km
# MJD 59592.000000 (2022 Jan 13  0:00)
XL8D89E
1 89996U 00000AAD 22012.99919926 -00A39BC8 +001CKZ4N -006RCOT5H 16705
2 89996                          +0000F7ZA -0000UZLZ -000490SR     05

# Worst residual: 0.13 km
# MJD 59593.000000 (2022 Jan 14  0:00)
XL8D89E
1 89996U 00000AAD 22013.99919926 -009YAUKE +0014YH9B -007R4SF6H 16700
2 89996                          +0000PW8A -0000WI2A -000413ZE     03

# Worst residual: 0.12 km
# MJD 59594.000000 (2022 Jan 15  0:00)
XL8D89E
1 89996U 00000AAD 22014.99919926 -009QWYWK +000X0385 -008OZPNAH 16704
2 89996                          +0000ZHF3 -0000XQYV -0003T0WR     01

# Worst residual: 0.15 km
# MJD 59595.000000 (2022 Jan 16  0:00)
XL8D89E
1 89996U 00000AAD 22015.99919926 -009HCDBH +000ORXTE -009KWBSMH 16700
2 89996                          +0001852M -0000YRKM -0003KUGZ     04

# Worst residual: 0.22 km
# MJD 59596.000000 (2022 Jan 17  0:00)
XL8D89E
1 89996U 00000AAD 22016.99919926 -0095SIV3 +000GBWVJ -00AEU2G2H 16704
2 89996                          +0001FZU8 -0000ZKPN -0003CMIX     07

# Worst residual: 0.31 km
# MJD 59597.000000 (2022 Jan 18  0:00)
XL8D89E
1 89996U 00000AAD 22017.99919926 -008SFVZL +0007PQH0 -00B6SPTPH 16705
2 89996                          +0001N5JZ -000106WG -00034E6O     01

# Worst residual: 0.40 km
# MJD 59598.000000 (2022 Jan 19  0:00)
XL8D89E
1 89996U 00000AAD 22018.99919926 -008DG3A5 -00010YMV -00BWS9EEH 16702
2 89996                          +0001TPB4 -00010MEM -0002W61L     00

# Worst residual: 0.47 km
# MJD 59599.000000 (2022 Jan 20  0:00)
XL8D89E
1 89996U 00000AAD 22019.99919926 -007WY3LZ -0009UL78 -00CKSS4BH 16705
2 89996                          +0001ZPIH -00010VBK -0002NYC6     05

# Worst residual: 0.50 km
# MJD 59600.000000 (2022 Jan 21  0:00)
XL8D89E
1 89996U 00000AAD 22020.99919926 -007F2DNL -000IPKB6 -00D6UDV5H 16705
2 89996                          +000257Z6 -00010XN1 -0002FR2B     01

# Worst residual: 0.49 km
# MJD 59601.000000 (2022 Jan 22  0:00)
XL8D89E
1 89996U 00000AAD 22021.99919926 -006VX0SN -000RKARC -00DQX5TBH 16701
2 89996                          +0002A9Z1 -00010TBE -00027K2U     09

# Worst residual: 0.53 km
# MJD 59602.000000 (2022 Jan 23  0:00)
XL8D89E
1 89996U 00000AAD 22022.99919926 -006BLVIF -0010D6ZX -00E915JDH 16709
2 89996                          +0002EWAY -00010IBN -0001ZD5V     04

# Worst residual: 0.52 km
# MJD 59603.000000 (2022 Jan 24  0:00)
XL8D89E
1 89996U 00000AAD 22023.99919926 -005Q8N80 -00192NIR -00EP6CNBH 16701
2 89996                          +0002J3D8 -000100P4 -0001R633     06

# Worst residual: 0.40 km
# MJD 59604.000000 (2022 Jan 25  0:00)
XL8D89E
1 89996U 00000AAD 22024.99919926 -0053WZEL -001HN3L3 -00F3COUEH 16701
2 89996                          +0002MV7M -0000ZCLC -0001IYNC     05

# Worst residual: 0.30 km
# MJD 59605.000000 (2022 Jan 26  0:00)
XL8D89E
1 89996U 00000AAD 22025.99919926 -004GQKE5 -001Q10H1 -00FFK2FMH 16708
2 89996                          +0002Q7LM -0000YIC0 -0001AQQE     05

# Worst residual: 0.36 km
# MJD 59606.000000 (2022 Jan 27  0:00)
XL8D89E
1 89996U 00000AAD 22026.99919926 -003ST5II -001Y6Z6Z -00FPSD7ZH 16703
2 89996                          +0002T43D -0000XIGV -00012ICL     07

# Worst residual: 0.39 km
# MJD 59607.000000 (2022 Jan 28  0:00)
XL8D89E
1 89996U 00000AAD 22027.99919926 -00348MEK -00263QO1 -00FY1HT4H 16708
2 89996                          +0002VK5L -0000WDTM -0000U9OG     01

